[{"OBJECT_NAME":"STARLINK-6368","OBJECT_ID":"2023-094S","EPOCH":"2026-03-09T22:00:01.999584","MEAN_MOTION":15.12976529,"ECCENTRICITY":0.0001762,"INCLINATION":43.0008,"RA_OF_ASC_NODE":28.4054,"ARG_OF_PERICENTER":256.3705,"MEAN_ANOMALY":50.16,"EPHEMERIS_TYPE":0,"CLASSIFICATION_TYPE":"U","NORAD_CAT_ID":57234,"ELEMENT_SET_NO":999,"REV_AT_EPOCH":567,"BSTAR":0.069359819,"MEAN_MOTION_DOT":0.01355316,"MEAN_MOTION_DDOT":0},{"OBJECT_NAME":"YUNYAO-1 45","OBJECT_ID":"2025-059C","EPOCH":"2026-03-09T23:25:14.115648","MEAN_MOTION":15.10348188,"ECCENTRICITY":0.00171316,"INCLINATION":97.6099,"RA_OF_ASC_NODE":251.0366,"ARG_OF_PERICENTER":134.7318,"MEAN_ANOMALY":225.5309,"EPHEMERIS_TYPE":0,"CLASSIFICATION_TYPE":"U","NORAD_CAT_ID":63346,"ELEMENT_SET_NO":999,"REV_AT_EPOCH":5332,"BSTAR":0.00033512738,"MEAN_MOTION_DOT":5.451e-5,"MEAN_MOTION_DDOT":0}]
